
[{"ORDINAL":"3","COMMENT":"GENERATED VIA SPACETRACK.ORG API","ORIGINATOR":"JSPOC","NORAD_CAT_ID":"39524","OBJECT_NAME":"BREEZE-M DEB (TANK)","OBJECT_TYPE":"DEBRIS","CLASSIFICATION_TYPE":"U","INTLDES":"14007C","EPOCH":"2015-04-07 08:42:57","EPOCH_MICROSECONDS":"195935","MEAN_MOTION":"3.71757408","ECCENTRICITY":"0.617444","INCLINATION":"49.38","RA_OF_ASC_NODE":"268.7461","ARG_OF_PERICENTER":"169.6672","MEAN_ANOMALY":"213.9533","EPHEMERIS_TYPE":"0","ELEMENT_SET_NO":"999","REV_AT_EPOCH":"1543","BSTAR":"0.001328","MEAN_MOTION_DOT":"1.97e-05","MEAN_MOTION_DDOT":"0","FILE":"1852396","TLE_LINE0":"0 BREEZE-M DEB (TANK)","TLE_LINE1":"1 39524U 14007C   15097.36316199  .00001970  00000-0  13280-2 0  9998","TLE_LINE2":"2 39524 049.3800 268.7461 6174440 169.6672 213.9533 03.71757408 15437","OBJECT_ID":"2014-007C","OBJECT_NUMBER":"39524"},{"ORDINAL":"4","COMMENT":"GENERATED VIA SPACETRACK.ORG API","ORIGINATOR":"JSPOC","NORAD_CAT_ID":"40386","OBJECT_NAME":"BREEZE-M DEB (TANK)","OBJECT_TYPE":"DEBRIS","CLASSIFICATION_TYPE":"U","INTLDES":"15005C","EPOCH":"2015-04-07 12:21:52","EPOCH_MICROSECONDS":"437600","MEAN_MOTION":"5.25233574","ECCENTRICITY":"0.5184013","INCLINATION":"50.7486","RA_OF_ASC_NODE":"278.9205","ARG_OF_PERICENTER":"210.6702","MEAN_ANOMALY":"104.7964","EPHEMERIS_TYPE":"0","ELEMENT_SET_NO":"999","REV_AT_EPOCH":"338","BSTAR":"0.00075579","MEAN_MOTION_DOT":"1.971e-05","MEAN_MOTION_DDOT":"0","FILE":"1852797","TLE_LINE0":"0 BREEZE-M DEB (TANK)","TLE_LINE1":"1 40386U 15005C   15097.51519025  .00001971  00000-0  75579-3 0  9996","TLE_LINE2":"2 40386 050.7486 278.9205 5184013 210.6702 104.7964 05.25233574  3387","OBJECT_ID":"2015-005C","OBJECT_NUMBER":"40386"},{"ORDINAL":"2","COMMENT":"GENERATED VIA SPACETRACK.ORG API","ORIGINATOR":"JSPOC","NORAD_CAT_ID":"40260","OBJECT_NAME":"BREEZE-M DEB (TANK)","OBJECT_TYPE":"DEBRIS","CLASSIFICATION_TYPE":"U","INTLDES":"14058C","EPOCH":"2015-04-07 13:33:05","EPOCH_MICROSECONDS":"689152","MEAN_MOTION":"2.27130235","ECCENTRICITY":"0.7225626","INCLINATION":"45.5998","RA_OF_ASC_NODE":"268.3251","ARG_OF_PERICENTER":"53.2916","MEAN_ANOMALY":"353.3097","EPHEMERIS_TYPE":"0","ELEMENT_SET_NO":"999","REV_AT_EPOCH":"432","BSTAR":"0.00090049","MEAN_MOTION_DOT":"3.54e-06","MEAN_MOTION_DDOT":"0","FILE":"1852833","TLE_LINE0":"0 BREEZE-M DEB (TANK)","TLE_LINE1":"1 40260U 14058C   15097.56464918  .00000354  00000-0  90049-3 0  9992","TLE_LINE2":"2 40260 045.5998 268.3251 7225626 053.2916 353.3097 02.27130235  4321","OBJECT_ID":"2014-058C","OBJECT_NUMBER":"40260"},{"ORDINAL":"4","COMMENT":"GENERATED VIA SPACETRACK.ORG API","ORIGINATOR":"JSPOC","NORAD_CAT_ID":"40260","OBJECT_NAME":"BREEZE-M DEB (TANK)","OBJECT_TYPE":"DEBRIS","CLASSIFICATION_TYPE":"U","INTLDES":"14058C","EPOCH":"2015-04-07 13:33:06","EPOCH_MICROSECONDS":"198048","MEAN_MOTION":"2.27129517","ECCENTRICITY":"0.7225769","INCLINATION":"45.5548","RA_OF_ASC_NODE":"268.2541","ARG_OF_PERICENTER":"53.3496","MEAN_ANOMALY":"353.3139","EPHEMERIS_TYPE":"0","ELEMENT_SET_NO":"999","REV_AT_EPOCH":"432","BSTAR":"0","MEAN_MOTION_DOT":"-1.31e-06","MEAN_MOTION_DDOT":"0","FILE":"1852406","TLE_LINE0":"0 BREEZE-M DEB (TANK)","TLE_LINE1":"1 40260U 14058C   15097.56465507 -.00000131  00000-0  00000+0 0  9995","TLE_LINE2":"2 40260 045.5548 268.2541 7225769 053.3496 353.3139 02.27129517  4323","OBJECT_ID":"2014-058C","OBJECT_NUMBER":"40260"},{"ORDINAL":"5","COMMENT":"GENERATED VIA SPACETRACK.ORG API","ORIGINATOR":"JSPOC","NORAD_CAT_ID":"39730","OBJECT_NAME":"BREEZE-M DEB (TANK)","OBJECT_TYPE":"DEBRIS","CLASSIFICATION_TYPE":"U","INTLDES":"14023D","EPOCH":"2015-04-07 14:31:06","EPOCH_MICROSECONDS":"452255","MEAN_MOTION":"2.38157259","ECCENTRICITY":"0.7224374","INCLINATION":"46.9008","RA_OF_ASC_NODE":"192.0002","ARG_OF_PERICENTER":"93.8688","MEAN_ANOMALY":"343.561","EPHEMERIS_TYPE":"0","ELEMENT_SET_NO":"999","REV_AT_EPOCH":"791","BSTAR":"0.0011133","MEAN_MOTION_DOT":"0.00015756","MEAN_MOTION_DDOT":"0","FILE":"1852420","TLE_LINE0":"0 BREEZE-M DEB (TANK)","TLE_LINE1":"1 39730U 14023D   15097.60493579  .00015756  00000-0  11133-2 0  9992","TLE_LINE2":"2 39730 046.9008 192.0002 7224374 093.8688 343.5610 02.38157259  7917","OBJECT_ID":"2014-023D","OBJECT_NUMBER":"39730"},{"ORDINAL":"2","COMMENT":"GENERATED VIA SPACETRACK.ORG API","ORIGINATOR":"JSPOC","NORAD_CAT_ID":"39524","OBJECT_NAME":"BREEZE-M DEB (TANK)","OBJECT_TYPE":"DEBRIS","CLASSIFICATION_TYPE":"U","INTLDES":"14007C","EPOCH":"2015-04-07 15:09:53","EPOCH_MICROSECONDS":"710559","MEAN_MOTION":"3.71757229","ECCENTRICITY":"0.6174238","INCLINATION":"49.386","RA_OF_ASC_NODE":"268.6159","ARG_OF_PERICENTER":"169.7791","MEAN_ANOMALY":"213.5736","EPHEMERIS_TYPE":"0","ELEMENT_SET_NO":"999","REV_AT_EPOCH":"1544","BSTAR":"0.0010006","MEAN_MOTION_DOT":"1.256e-05","MEAN_MOTION_DDOT":"0","FILE":"1852929","TLE_LINE0":"0 BREEZE-M DEB (TANK)","TLE_LINE1":"1 39524U 14007C   15097.63187165  .00001256  00000-0  10006-2 0  9997","TLE_LINE2":"2 39524 049.3860 268.6159 6174238 169.7791 213.5736 03.71757229 15447","OBJECT_ID":"2014-007C","OBJECT_NUMBER":"39524"},{"ORDINAL":"3","COMMENT":"GENERATED VIA SPACETRACK.ORG API","ORIGINATOR":"JSPOC","NORAD_CAT_ID":"40304","OBJECT_NAME":"SL-24 PLAT","OBJECT_TYPE":"DEBRIS","CLASSIFICATION_TYPE":"U","INTLDES":"14070G","EPOCH":"2015-04-07 16:43:56","EPOCH_MICROSECONDS":"484191","MEAN_MOTION":"15.31467888","ECCENTRICITY":"0.001764","INCLINATION":"97.4653","RA_OF_ASC_NODE":"182.5615","ARG_OF_PERICENTER":"182.1143","MEAN_ANOMALY":"178.0544","EPHEMERIS_TYPE":"0","ELEMENT_SET_NO":"999","REV_AT_EPOCH":"2326","BSTAR":"0.00045362","MEAN_MOTION_DOT":"0.0001383","MEAN_MOTION_DDOT":"0","FILE":"1852443","TLE_LINE0":"0 SL-24 PLAT","TLE_LINE1":"1 40304U 14070G   15097.69718153  .00013830  00000-0  45362-3 0  9993","TLE_LINE2":"2 40304 097.4653 182.5615 0017640 182.1143 178.0544 15.31467888 23266","OBJECT_ID":"2014-070G","OBJECT_NUMBER":"40304"},{"ORDINAL":"4","COMMENT":"GENERATED VIA SPACETRACK.ORG API","ORIGINATOR":"JSPOC","NORAD_CAT_ID":"40264","OBJECT_NAME":"CZ-2C DEB","OBJECT_TYPE":"DEBRIS","CLASSIFICATION_TYPE":"U","INTLDES":"14059D","EPOCH":"2015-04-07 20:46:57","EPOCH_MICROSECONDS":"421632","MEAN_MOTION":"14.47559326","ECCENTRICITY":"0.0113251","INCLINATION":"97.871","RA_OF_ASC_NODE":"177.8923","ARG_OF_PERICENTER":"349.2625","MEAN_ANOMALY":"10.6649","EPHEMERIS_TYPE":"0","ELEMENT_SET_NO":"999","REV_AT_EPOCH":"2771","BSTAR":"0.00059468","MEAN_MOTION_DOT":"2.37e-05","MEAN_MOTION_DDOT":"0","FILE":"1852510","TLE_LINE0":"0 CZ-2C DEB","TLE_LINE1":"1 40264U 14059D   15097.86594238  .00002370  00000-0  59468-3 0  9999","TLE_LINE2":"2 40264 097.8710 177.8923 0113251 349.2625 010.6649 14.47559326 27710","OBJECT_ID":"2014-059D","OBJECT_NUMBER":"40264"},{"ORDINAL":"5","COMMENT":"GENERATED VIA SPACETRACK.ORG API","ORIGINATOR":"JSPOC","NORAD_CAT_ID":"39511","OBJECT_NAME":"ARIANE 5 DEB (SYLDA)","OBJECT_TYPE":"DEBRIS","CLASSIFICATION_TYPE":"U","INTLDES":"14006D","EPOCH":"2015-04-07 22:31:53","EPOCH_MICROSECONDS":"208191","MEAN_MOTION":"2.63555883","ECCENTRICITY":"0.6998128","INCLINATION":"5.9154","RA_OF_ASC_NODE":"89.3311","ARG_OF_PERICENTER":"201.9803","MEAN_ANOMALY":"99.9004","EPHEMERIS_TYPE":"0","ELEMENT_SET_NO":"999","REV_AT_EPOCH":"1028","BSTAR":"0.0024827","MEAN_MOTION_DOT":"7.892e-05","MEAN_MOTION_DDOT":"0","FILE":"1852575","TLE_LINE0":"0 ARIANE 5 DEB (SYLDA)","TLE_LINE1":"1 39511U 14006D   15097.93881028  .00007892  00000-0  24827-2 0  9992","TLE_LINE2":"2 39511 005.9154 089.3311 6998128 201.9803 099.9004 02.63555883 10283","OBJECT_ID":"2014-006D","OBJECT_NUMBER":"39511"},{"ORDINAL":"3","COMMENT":"GENERATED VIA SPACETRACK.ORG API","ORIGINATOR":"JSPOC","NORAD_CAT_ID":"40114","OBJECT_NAME":"CZ-4C DEB","OBJECT_TYPE":"DEBRIS","CLASSIFICATION_TYPE":"U","INTLDES":"14047F","EPOCH":"2015-04-07 23:06:56","EPOCH_MICROSECONDS":"610143","MEAN_MOTION":"13.43580637","ECCENTRICITY":"0.0030192","INCLINATION":"63.407","RA_OF_ASC_NODE":"92.9215","ARG_OF_PERICENTER":"14.1832","MEAN_ANOMALY":"346.0406","EPHEMERIS_TYPE":"0","ELEMENT_SET_NO":"999","REV_AT_EPOCH":"98293","BSTAR":"0.0001","MEAN_MOTION_DOT":"1.11e-06","MEAN_MOTION_DDOT":"0","FILE":"1852539","TLE_LINE0":"0 CZ-4C DEB","TLE_LINE1":"1 40114U 14047F   15097.96315521  .00000111  00000-0  10000-3 0  9997","TLE_LINE2":"2 40114 063.4070 092.9215 0030192 014.1832 346.0406 13.43580637982938","OBJECT_ID":"2014-047F","OBJECT_NUMBER":"40114"},{"ORDINAL":"2","COMMENT":"GENERATED VIA SPACETRACK.ORG API","ORIGINATOR":"JSPOC","NORAD_CAT_ID":"39626","OBJECT_NAME":"CZ-2C DEB","OBJECT_TYPE":"DEBRIS","CLASSIFICATION_TYPE":"U","INTLDES":"14014C","EPOCH":"2015-04-08 01:32:05","EPOCH_MICROSECONDS":"865791","MEAN_MOTION":"14.50023303","ECCENTRICITY":"0.0110706","INCLINATION":"98.007","RA_OF_ASC_NODE":"139.0344","ARG_OF_PERICENTER":"159.1119","MEAN_ANOMALY":"201.4653","EPHEMERIS_TYPE":"0","ELEMENT_SET_NO":"999","REV_AT_EPOCH":"5398","BSTAR":"0.00065325","MEAN_MOTION_DOT":"2.693e-05","MEAN_MOTION_DDOT":"0","FILE":"1852647","TLE_LINE0":"0 CZ-2C DEB","TLE_LINE1":"1 39626U 14014C   15098.06395678  .00002693  00000-0  65325-3 0  9997","TLE_LINE2":"2 39626 098.0070 139.0344 0110706 159.1119 201.4653 14.50023303 53985","OBJECT_ID":"2014-014C","OBJECT_NUMBER":"39626"},{"ORDINAL":"4","COMMENT":"GENERATED VIA SPACETRACK.ORG API","ORIGINATOR":"JSPOC","NORAD_CAT_ID":"39628","OBJECT_NAME":"CZ-2C DEB","OBJECT_TYPE":"DEBRIS","CLASSIFICATION_TYPE":"U","INTLDES":"14014E","EPOCH":"2015-04-08 02:53:59","EPOCH_MICROSECONDS":"734464","MEAN_MOTION":"14.50132943","ECCENTRICITY":"0.0110041","INCLINATION":"98.4513","RA_OF_ASC_NODE":"158.5096","ARG_OF_PERICENTER":"171.3424","MEAN_ANOMALY":"188.9702","EPHEMERIS_TYPE":"0","ELEMENT_SET_NO":"999","REV_AT_EPOCH":"5400","BSTAR":"0.00080032","MEAN_MOTION_DOT":"3.31e-05","MEAN_MOTION_DDOT":"0","FILE":"1852653","TLE_LINE0":"0 CZ-2C DEB","TLE_LINE1":"1 39628U 14014E   15098.12083026  .00003310  00000-0  80032-3 0  9996","TLE_LINE2":"2 39628 098.4513 158.5096 0110041 171.3424 188.9702 14.50132943 54009","OBJECT_ID":"2014-014E","OBJECT_NUMBER":"39628"}]